{"type": "FeatureCollection", "features": [ {"type": "Feature", "properties": {"norad_id": 67103, "name": "STARLINK-36256", "group": "last-30-days", "lat": 30.928512872430026, "lon": 8.095750090373734, "alt_km": 337.1401836233299, "timestamp": "2025-12-27T04:40:44.222290+00:00", "meta": {"OBJECT_NAME": "STARLINK-36256", "OBJECT_ID": "2025-299B", "EPOCH": "2025-12-26T22:00:01.999584", "MEAN_MOTION": 15.77300001, "ECCENTRICITY": 0.0001444, "INCLINATION": 42.998, "RA_OF_ASC_NODE": 229.8075, "ARG_OF_PERICENTER": 269.4904, "MEAN_ANOMALY": 80.0847, "EPHEMERIS_TYPE": 0, "CLASSIFICATION_TYPE": "U", "NORAD_CAT_ID": 67103, "ELEMENT_SET_NO": 999, "REV_AT_EPOCH": 308, "BSTAR": -0.012124432, "MEAN_MOTION_DOT": -0.0180569, "MEAN_MOTION_DDOT": 0}, "tle": {"line1": "1 67103U 25299B   25360.91668981 -.01805690  00000+0 -12124-1 0  9999", "line2": "2 67103  42.9980 229.8075 0001444 269.4904  80.0847 15.77300001  3083"}}, "geometry": {"type": "Point", "coordinates": [8.095750090373734, 30.928512872430026]}}, {"type": "Feature", "properties": {"norad_id": 67104, "name": "STARLINK-36258", "group": "last-30-days", "lat": 30.094092796492006, "lon": 9.649327454716149, "alt_km": 337.4455482145986, "timestamp": "2025-12-27T04:40:44.222300+00:00", "meta": {"OBJECT_NAME": "STARLINK-36258", "OBJECT_ID": "2025-299C", "EPOCH": "2025-12-26T22:00:01.999584", "MEAN_MOTION": 15.7731207, "ECCENTRICITY": 0.00016748, "INCLINATION": 42.998, "RA_OF_ASC_NODE": 229.8032, "ARG_OF_PERICENTER": 276.6558, "MEAN_ANOMALY": 74.4852, "EPHEMERIS_TYPE": 0, "CLASSIFICATION_TYPE": "U", "NORAD_CAT_ID": 67104, "ELEMENT_SET_NO": 999, "REV_AT_EPOCH": 308, "BSTAR": -0.012109111, "MEAN_MOTION_DOT": -0.01804751, "MEAN_MOTION_DDOT": 0}, "tle": {"line1": "1 67104U 25299C   25360.91668981 -.01804751  00000+0 -12109-1 0  9990", "line2": "2 67104  42.9980 229.8032 0001674 276.6558  74.4852 15.77312070  3089"}}, "geometry": {"type": "Point", "coordinates": [9.649327454716149, 30.094092796492006]}}, {"type": "Feature", "properties": {"norad_id": 67105, "name": "STARLINK-36261", "group": "last-30-days", "lat": 29.341740966321, "lon": 11.000515263551069, "alt_km": 337.4472619375447, "timestamp": "2025-12-27T04:40:44.222310+00:00", "meta": {"OBJECT_NAME": "STARLINK-36261", "OBJECT_ID": "2025-299D", "EPOCH": "2025-12-26T22:00:01.999584", "MEAN_MOTION": 15.77334559, "ECCENTRICITY": 0.000166, "INCLINATION": 42.9979, "RA_OF_ASC_NODE": 229.8, "ARG_OF_PERICENTER": 274.4751, "MEAN_ANOMALY": 78.0393, "EPHEMERIS_TYPE": 0, "CLASSIFICATION_TYPE": "U", "NORAD_CAT_ID": 67105, "ELEMENT_SET_NO": 999, "REV_AT_EPOCH": 308, "BSTAR": -0.012099608, "MEAN_MOTION_DOT": -0.01805103, "MEAN_MOTION_DDOT": 0}, "tle": {"line1": "1 67105U 25299D   25360.91668981 -.01805103  00000+0 -12100-1 0  9994", "line2": "2 67105  42.9979 229.8000 0001660 274.4751  78.0393 15.77334559  3085"}}, "geometry": {"type": "Point", "coordinates": [11.000515263551069, 29.341740966321]}}, {"type": "Feature", "properties": {"norad_id": 67106, "name": "STARLINK-36259", "group": "last-30-days", "lat": 27.451123060503456, "lon": 14.213509402461066, "alt_km": 337.52209499225137, "timestamp": "2025-12-27T04:40:44.222320+00:00", "meta": {"OBJECT_NAME": "STARLINK-36259", "OBJECT_ID": "2025-299E", "EPOCH": "2025-12-26T22:00:01.999584", "MEAN_MOTION": 15.77347248, "ECCENTRICITY": 0.00017198, "INCLINATION": 42.998, "RA_OF_ASC_NODE": 229.7913, "ARG_OF_PERICENTER": 265.6806, "MEAN_ANOMALY": 90.2244, "EPHEMERIS_TYPE": 0, "CLASSIFICATION_TYPE": "U", "NORAD_CAT_ID": 67106, "ELEMENT_SET_NO": 999, "REV_AT_EPOCH": 308, "BSTAR": -0.012012599, "MEAN_MOTION_DOT": -0.01794684, "MEAN_MOTION_DDOT": 0}, "tle": {"line1": "1 67106U 25299E   25360.91668981 -.01794684  00000+0 -12013-1 0  9999", "line2": "2 67106  42.9980 229.7913 0001719 265.6806  90.2244 15.77347248  3088"}}, "geometry": {"type": "Point", "coordinates": [14.213509402461066, 27.451123060503456]}}, {"type": "Feature", "properties": {"norad_id": 67107, "name": "STARLINK-36196", "group": "last-30-days", "lat": 28.441063221689607, "lon": 12.562073190334862, "alt_km": 337.2823447666233, "timestamp": "2025-12-27T04:40:44.222330+00:00", "meta": {"OBJECT_NAME": "STARLINK-36196", "OBJECT_ID": "2025-299F", "EPOCH": "2025-12-26T22:00:01.999584", "MEAN_MOTION": 15.77343993, "ECCENTRICITY": 0.0001481, "INCLINATION": 42.998, "RA_OF_ASC_NODE": 229.7962, "ARG_OF_PERICENTER": 264.4553, "MEAN_ANOMALY": 89.688, "EPHEMERIS_TYPE": 0, "CLASSIFICATION_TYPE": "U", "NORAD_CAT_ID": 67107, "ELEMENT_SET_NO": 999, "REV_AT_EPOCH": 308, "BSTAR": -0.012058404, "MEAN_MOTION_DOT": -0.0180024, "MEAN_MOTION_DDOT": 0}, "tle": {"line1": "1 67107U 25299F   25360.91668981 -.01800240  00000+0 -12058-1 0  9995", "line2": "2 67107  42.9980 229.7962 0001481 264.4553  89.6880 15.77343993  3086"}}, "geometry": {"type": "Point", "coordinates": [12.562073190334862, 28.441063221689607]}}, {"type": "Feature", "properties": {"norad_id": 67108, "name": "STARLINK-36208", "group": "last-30-days", "lat": 26.445744539099714, "lon": 15.829474372935005, "alt_km": 337.6124075501075, "timestamp": "2025-12-27T04:40:44.222340+00:00", "meta": {"OBJECT_NAME": "STARLINK-36208", "OBJECT_ID": "2025-299G", "EPOCH": "2025-12-26T22:00:01.999584", "MEAN_MOTION": 15.77356533, "ECCENTRICITY": 0.00017083, "INCLINATION": 42.998, "RA_OF_ASC_NODE": 229.7867, "ARG_OF_PERICENTER": 264.7899, "MEAN_ANOMALY": 92.8658, "EPHEMERIS_TYPE": 0, "CLASSIFICATION_TYPE": "U", "NORAD_CAT_ID": 67108, "ELEMENT_SET_NO": 999, "REV_AT_EPOCH": 308, "BSTAR": -0.012036382, "MEAN_MOTION_DOT": -0.01798447, "MEAN_MOTION_DDOT": 0}, "tle": {"line1": "1 67108U 25299G   25360.91668981 -.01798447  00000+0 -12036-1 0  9997", "line2": "2 67108  42.9980 229.7867 0001708 264.7899  92.8658 15.77356533  3082"}}, "geometry": {"type": "Point", "coordinates": [15.829474372935005, 26.445744539099714]}}, {"type": "Feature", "properties": {"norad_id": 67109, "name": "STARLINK-35764", "group": "last-30-days", "lat": 25.348000998383114, "lon": 17.530883888735293, "alt_km": 338.2377171088583, "timestamp": "2025-12-27T04:40:44.222352+00:00", "meta": {"OBJECT_NAME": "STARLINK-35764", "OBJECT_ID": "2025-299H", "EPOCH": "2025-12-26T22:00:01.999584", "MEAN_MOTION": 15.77206068, "ECCENTRICITY": 0.00022312, "INCLINATION": 42.9979, "RA_OF_ASC_NODE": 229.782, "ARG_OF_PERICENTER": 269.4643, "MEAN_ANOMALY": 90.1836, "EPHEMERIS_TYPE": 0, "CLASSIFICATION_TYPE": "U", "NORAD_CAT_ID": 67109, "ELEMENT_SET_NO": 999, "REV_AT_EPOCH": 298, "BSTAR": -0.011071874, "MEAN_MOTION_DOT": -0.01661212, "MEAN_MOTION_DDOT": 0}, "tle": {"line1": "1 67109U 25299H   25360.91668981 -.01661212  00000+0 -11072-1 0  9996", "line2": "2 67109  42.9979 229.7820 0002231 269.4643  90.1836 15.77206068  2985"}}, "geometry": {"type": "Point", "coordinates": [17.530883888735293, 25.348000998383114]}}, {"type": "Feature", "properties": {"norad_id": 67110, "name": "STARLINK-35781", "group": "last-30-days", "lat": 23.194618891057182, "lon": 20.70190248132663, "alt_km": 337.99242748835877, "timestamp": "2025-12-27T04:40:44.222362+00:00", "meta": {"OBJECT_NAME": "STARLINK-35781", "OBJECT_ID": "2025-299J", "EPOCH": "2025-12-26T22:00:01.999584", "MEAN_MOTION": 15.77367681, "ECCENTRICITY": 0.00016052, "INCLINATION": 42.9982, "RA_OF_ASC_NODE": 229.7733, "ARG_OF_PERICENTER": 266.0379, "MEAN_ANOMALY": 97.0992, "EPHEMERIS_TYPE": 0, "CLASSIFICATION_TYPE": "U", "NORAD_CAT_ID": 67110, "ELEMENT_SET_NO": 999, "REV_AT_EPOCH": 303, "BSTAR": -0.012036655, "MEAN_MOTION_DOT": -0.01799188, "MEAN_MOTION_DDOT": 0}, "tle": {"line1": "1 67110U 25299J   25360.91668981 -.01799188  00000+0 -12037-1 0  9994", "line2": "2 67110  42.9982 229.7733 0001605 266.0379  97.0992 15.77367681  3032"}}, "geometry": {"type": "Point", "coordinates": [20.70190248132663, 23.194618891057182]}}, {"type": "Feature", "properties": {"norad_id": 67111, "name": "STARLINK-35875", "group": "last-30-days", "lat": 24.26283343409263, "lon": 19.154781629760635, "alt_km": 337.9416525204324, "timestamp": "2025-12-27T04:40:44.222374+00:00", "meta": {"OBJECT_NAME": "STARLINK-35875", "OBJECT_ID": "2025-299K", "EPOCH": "2025-12-26T22:00:01.999584", "MEAN_MOTION": 15.77360815, "ECCENTRICITY": 0.00017389, "INCLINATION": 42.9982, "RA_OF_ASC_NODE": 229.7778, "ARG_OF_PERICENTER": 267.3587, "MEAN_ANOMALY": 94.0086, "EPHEMERIS_TYPE": 0, "CLASSIFICATION_TYPE": "U", "NORAD_CAT_ID": 67111, "ELEMENT_SET_NO": 999, "REV_AT_EPOCH": 298, "BSTAR": -0.012004199, "MEAN_MOTION_DOT": -0.01794564, "MEAN_MOTION_DDOT": 0}, "tle": {"line1": "1 67111U 25299K   25360.91668981 -.01794564  00000+0 -12004-1 0  9992", "line2": "2 67111  42.9982 229.7778 0001738 267.3587  94.0086 15.77360815  2980"}}, "geometry": {"type": "Point", "coordinates": [19.154781629760635, 24.26283343409263]}}, {"type": "Feature", "properties": {"norad_id": 67112, "name": "STARLINK-35906", "group": "last-30-days", "lat": 22.23067902798616, "lon": 22.05899594661816, "alt_km": 338.0559762187131, "timestamp": "2025-12-27T04:40:44.222386+00:00", "meta": {"OBJECT_NAME": "STARLINK-35906", "OBJECT_ID": "2025-299L", "EPOCH": "2025-12-26T22:00:01.999584", "MEAN_MOTION": 15.77383261, "ECCENTRICITY": 0.0001559, "INCLINATION": 42.9981, "RA_OF_ASC_NODE": 229.7696, "ARG_OF_PERICENTER": 265.6916, "MEAN_ANOMALY": 99.0119, "EPHEMERIS_TYPE": 0, "CLASSIFICATION_TYPE": "U", "NORAD_CAT_ID": 67112, "ELEMENT_SET_NO": 999, "REV_AT_EPOCH": 298, "BSTAR": -0.012047765, "MEAN_MOTION_DOT": -0.01801713, "MEAN_MOTION_DDOT": 0}, "tle": {"line1": "1 67112U 25299L   25360.91668981 -.01801713  00000+0 -12048-1 0  9996", "line2": "2 67112  42.9981 229.7696 0001559 265.6916  99.0119 15.77383261  2989"}}, "geometry": {"type": "Point", "coordinates": [22.05899594661816, 22.23067902798616]}}]}